{"type": "FeatureCollection", "features": [ {"type": "Feature", "properties": {"norad_id": 30569, "name": "FENGYUN 1C DEB", "group": "fengyun-1c-debris", "lat": -16.838706872646995, "lon": -55.25880145500885, "alt_km": 655.6926638757313, "timestamp": "2025-12-14T07:33:19.755151+00:00", "meta": {"OBJECT_NAME": "FENGYUN 1C DEB", "OBJECT_ID": "1999-025ALK", "EPOCH": "2025-12-13T07:51:10.822176", "MEAN_MOTION": 14.73724999, "ECCENTRICITY": 0.00059643, "INCLINATION": 98.7362, "RA_OF_ASC_NODE": 126.3457, "ARG_OF_PERICENTER": 84.0254, "MEAN_ANOMALY": 276.1631, "EPHEMERIS_TYPE": 0, "CLASSIFICATION_TYPE": "U", "NORAD_CAT_ID": 30569, "ELEMENT_SET_NO": 999, "REV_AT_EPOCH": 98215, "BSTAR": 0.0057899467, "MEAN_MOTION_DOT": 0.00037974, "MEAN_MOTION_DDOT": 0}, "tle": {"line1": "1 30569U 99025ALK 25347.32720859  .00037974  00000+0  57899-2 0  9994", "line2": "2 30569  98.7362 126.3457 0005964  84.0254 276.1631 14.73724999982151"}}, "geometry": {"type": "Point", "coordinates": [-55.25880145500885, -16.838706872646995]}}, {"type": "Feature", "properties": {"norad_id": 30570, "name": "FENGYUN 1C DEB", "group": "fengyun-1c-debris", "lat": 79.95254338487105, "lon": -99.23756845953383, "alt_km": 847.0043483930513, "timestamp": "2025-12-14T07:33:19.755161+00:00", "meta": {"OBJECT_NAME": "FENGYUN 1C DEB", "OBJECT_ID": "1999-025ALL", "EPOCH": "2025-12-13T14:41:09.848256", "MEAN_MOTION": 14.14270171, "ECCENTRICITY": 0.00353, "INCLINATION": 98.7152, "RA_OF_ASC_NODE": 20.1112, "ARG_OF_PERICENTER": 209.3677, "MEAN_ANOMALY": 269.323, "EPHEMERIS_TYPE": 0, "CLASSIFICATION_TYPE": "U", "NORAD_CAT_ID": 30570, "ELEMENT_SET_NO": 999, "REV_AT_EPOCH": 97010, "BSTAR": 0.00062972795, "MEAN_MOTION_DOT": 1.166e-05, "MEAN_MOTION_DDOT": 0}, "tle": {"line1": "1 30570U 99025ALL 25347.61191954  .00001166  00000+0  62973-3 0  9990", "line2": "2 30570  98.7152  20.1112 0035300 209.3677 269.3230 14.14270171970101"}}, "geometry": {"type": "Point", "coordinates": [-99.23756845953383, 79.95254338487105]}}, {"type": "Feature", "properties": {"norad_id": 30571, "name": "FENGYUN 1C DEB", "group": "fengyun-1c-debris", "lat": 11.474110778690207, "lon": 12.696112663025719, "alt_km": 870.1941878632442, "timestamp": "2025-12-14T07:33:19.755173+00:00", "meta": {"OBJECT_NAME": "FENGYUN 1C DEB", "OBJECT_ID": "1999-025ALM", "EPOCH": "2025-12-13T15:01:42.580128", "MEAN_MOTION": 14.10696447, "ECCENTRICITY": 0.00208276, "INCLINATION": 98.7313, "RA_OF_ASC_NODE": 13.8147, "ARG_OF_PERICENTER": 231.3622, "MEAN_ANOMALY": 244.9802, "EPHEMERIS_TYPE": 0, "CLASSIFICATION_TYPE": "U", "NORAD_CAT_ID": 30571, "ELEMENT_SET_NO": 999, "REV_AT_EPOCH": 96899, "BSTAR": 0.00033886216, "MEAN_MOTION_DOT": 5.64e-06, "MEAN_MOTION_DDOT": 0}, "tle": {"line1": "1 30571U 99025ALM 25347.62618727  .00000564  00000+0  33886-3 0  9996", "line2": "2 30571  98.7313  13.8147 0020827 231.3622 244.9802 14.10696447968993"}}, "geometry": {"type": "Point", "coordinates": [12.696112663025719, 11.474110778690207]}}, {"type": "Feature", "properties": {"norad_id": 30572, "name": "FENGYUN 1C DEB", "group": "fengyun-1c-debris", "lat": -80.95069208087408, "lon": 122.08609872065237, "alt_km": 856.1206566457149, "timestamp": "2025-12-14T07:33:19.755185+00:00", "meta": {"OBJECT_NAME": "FENGYUN 1C DEB", "OBJECT_ID": "1999-025ALN", "EPOCH": "2025-12-13T15:30:59.595840", "MEAN_MOTION": 14.0892234, "ECCENTRICITY": 0.00211359, "INCLINATION": 98.7721, "RA_OF_ASC_NODE": 17.2453, "ARG_OF_PERICENTER": 290.9658, "MEAN_ANOMALY": 189.1514, "EPHEMERIS_TYPE": 0, "CLASSIFICATION_TYPE": "U", "NORAD_CAT_ID": 30572, "ELEMENT_SET_NO": 999, "REV_AT_EPOCH": 96774, "BSTAR": 0.00031801261, "MEAN_MOTION_DOT": 5.08e-06, "MEAN_MOTION_DDOT": 0}, "tle": {"line1": "1 30572U 99025ALN 25347.64652310  .00000508  00000+0  31801-3 0  9998", "line2": "2 30572  98.7721  17.2453 0021135 290.9658 189.1514 14.08922340967741"}}, "geometry": {"type": "Point", "coordinates": [122.08609872065237, -80.95069208087408]}}, {"type": "Feature", "properties": {"norad_id": 30573, "name": "FENGYUN 1C DEB", "group": "fengyun-1c-debris", "lat": -43.73834222276216, "lon": -162.84760663107608, "alt_km": 807.3812895940973, "timestamp": "2025-12-14T07:33:19.755196+00:00", "meta": {"OBJECT_NAME": "FENGYUN 1C DEB", "OBJECT_ID": "1999-025ALP", "EPOCH": "2025-12-13T14:13:51.674016", "MEAN_MOTION": 14.13845843, "ECCENTRICITY": 0.00883768, "INCLINATION": 99.2272, "RA_OF_ASC_NODE": 25.3563, "ARG_OF_PERICENTER": 271.3791, "MEAN_ANOMALY": 241.6052, "EPHEMERIS_TYPE": 0, "CLASSIFICATION_TYPE": "U", "NORAD_CAT_ID": 30573, "ELEMENT_SET_NO": 999, "REV_AT_EPOCH": 96209, "BSTAR": 0.0022443292, "MEAN_MOTION_DOT": 4.367e-05, "MEAN_MOTION_DDOT": 0}, "tle": {"line1": "1 30573U 99025ALP 25347.59295919  .00004367  00000+0  22443-2 0  9999", "line2": "2 30573  99.2272  25.3563 0088376 271.3791 241.6052 14.13845843962094"}}, "geometry": {"type": "Point", "coordinates": [-162.84760663107608, -43.73834222276216]}}, {"type": "Feature", "properties": {"norad_id": 30574, "name": "FENGYUN 1C DEB", "group": "fengyun-1c-debris", "lat": -48.148345881015345, "lon": 162.41609480203556, "alt_km": 842.0891870765809, "timestamp": "2025-12-14T07:33:19.755206+00:00", "meta": {"OBJECT_NAME": "FENGYUN 1C DEB", "OBJECT_ID": "1999-025ALQ", "EPOCH": "2025-12-11T10:03:26.289792", "MEAN_MOTION": 13.77512791, "ECCENTRICITY": 0.0219325, "INCLINATION": 99.302, "RA_OF_ASC_NODE": 149.0367, "ARG_OF_PERICENTER": 350.9796, "MEAN_ANOMALY": 8.7444, "EPHEMERIS_TYPE": 0, "CLASSIFICATION_TYPE": "U", "NORAD_CAT_ID": 30574, "ELEMENT_SET_NO": 999, "REV_AT_EPOCH": 93750, "BSTAR": 0.0031904769, "MEAN_MOTION_DOT": 3.752e-05, "MEAN_MOTION_DDOT": 0}, "tle": {"line1": "1 30574U 99025ALQ 25345.41905428  .00003752  00000+0  31905-2 0  9992", "line2": "2 30574  99.3020 149.0367 0219325 350.9796   8.7444 13.77512791937509"}}, "geometry": {"type": "Point", "coordinates": [162.41609480203556, -48.148345881015345]}}, {"type": "Feature", "properties": {"norad_id": 30575, "name": "FENGYUN 1C DEB", "group": "fengyun-1c-debris", "lat": 78.50725508788055, "lon": 26.74313884221223, "alt_km": 783.9027369157584, "timestamp": "2025-12-14T07:33:19.755216+00:00", "meta": {"OBJECT_NAME": "FENGYUN 1C DEB", "OBJECT_ID": "1999-025ALR", "EPOCH": "2025-12-13T04:45:31.810176", "MEAN_MOTION": 14.40068331, "ECCENTRICITY": 0.00541621, "INCLINATION": 99.1694, "RA_OF_ASC_NODE": 78.1487, "ARG_OF_PERICENTER": 235.1999, "MEAN_ANOMALY": 183.0873, "EPHEMERIS_TYPE": 0, "CLASSIFICATION_TYPE": "U", "NORAD_CAT_ID": 30575, "ELEMENT_SET_NO": 999, "REV_AT_EPOCH": 98224, "BSTAR": 0.0015867606, "MEAN_MOTION_DOT": 5.045e-05, "MEAN_MOTION_DDOT": 0}, "tle": {"line1": "1 30575U 99025ALR 25347.19828484  .00005045  00000+0  15868-2 0  9993", "line2": "2 30575  99.1694  78.1487 0054162 235.1999 183.0873 14.40068331982246"}}, "geometry": {"type": "Point", "coordinates": [26.74313884221223, 78.50725508788055]}}, {"type": "Feature", "properties": {"norad_id": 30577, "name": "FENGYUN 1C DEB", "group": "fengyun-1c-debris", "lat": -28.233657811453334, "lon": 26.963626448613102, "alt_km": 848.9514281007287, "timestamp": "2025-12-14T07:33:19.755226+00:00", "meta": {"OBJECT_NAME": "FENGYUN 1C DEB", "OBJECT_ID": "1999-025ALT", "EPOCH": "2025-12-13T08:30:01.722240", "MEAN_MOTION": 14.11145792, "ECCENTRICITY": 0.00286119, "INCLINATION": 98.7707, "RA_OF_ASC_NODE": 21.2705, "ARG_OF_PERICENTER": 280.3946, "MEAN_ANOMALY": 213.4711, "EPHEMERIS_TYPE": 0, "CLASSIFICATION_TYPE": "U", "NORAD_CAT_ID": 30577, "ELEMENT_SET_NO": 999, "REV_AT_EPOCH": 96793, "BSTAR": 0.00072198544, "MEAN_MOTION_DOT": 1.262e-05, "MEAN_MOTION_DDOT": 0}, "tle": {"line1": "1 30577U 99025ALT 25347.35418660  .00001262  00000+0  72199-3 0  9992", "line2": "2 30577  98.7707  21.2705 0028611 280.3946 213.4711 14.11145792967937"}}, "geometry": {"type": "Point", "coordinates": [26.963626448613102, -28.233657811453334]}}, {"type": "Feature", "properties": {"norad_id": 30579, "name": "FENGYUN 1C DEB", "group": "fengyun-1c-debris", "lat": 35.49651006034544, "lon": -160.70781374628191, "alt_km": 845.3965763676533, "timestamp": "2025-12-14T07:33:19.755236+00:00", "meta": {"OBJECT_NAME": "FENGYUN 1C DEB", "OBJECT_ID": "1999-025ALV", "EPOCH": "2025-12-13T08:44:25.856160", "MEAN_MOTION": 14.05251365, "ECCENTRICITY": 0.0053696, "INCLINATION": 98.807, "RA_OF_ASC_NODE": 12.021, "ARG_OF_PERICENTER": 101.8792, "MEAN_ANOMALY": 275.1598, "EPHEMERIS_TYPE": 0, "CLASSIFICATION_TYPE": "U", "NORAD_CAT_ID": 30579, "ELEMENT_SET_NO": 999, "REV_AT_EPOCH": 96466, "BSTAR": 0.00062574595, "MEAN_MOTION_DOT": 9.83e-06, "MEAN_MOTION_DDOT": 0}, "tle": {"line1": "1 30579U 99025ALV 25347.36418815  .00000983  00000+0  62575-3 0  9993", "line2": "2 30579  98.8070  12.0210 0053696 101.8792 275.1598 14.05251365964661"}}, "geometry": {"type": "Point", "coordinates": [-160.70781374628191, 35.49651006034544]}}, {"type": "Feature", "properties": {"norad_id": 30594, "name": "FENGYUN 1C DEB", "group": "fengyun-1c-debris", "lat": 50.25327725592204, "lon": 35.720927411984206, "alt_km": 968.9897436146593, "timestamp": "2025-12-14T07:33:19.755246+00:00", "meta": {"OBJECT_NAME": "FENGYUN 1C DEB", "OBJECT_ID": "1999-025ALZ", "EPOCH": "2025-12-12T21:03:29.990016", "MEAN_MOTION": 14.1734067, "ECCENTRICITY": 0.01933958, "INCLINATION": 99.1512, "RA_OF_ASC_NODE": 203.064, "ARG_OF_PERICENTER": 315.9788, "MEAN_ANOMALY": 42.6122, "EPHEMERIS_TYPE": 0, "CLASSIFICATION_TYPE": "U", "NORAD_CAT_ID": 30594, "ELEMENT_SET_NO": 999, "REV_AT_EPOCH": 97581, "BSTAR": 0.00027871131, "MEAN_MOTION_DOT": 6.27e-06, "MEAN_MOTION_DDOT": 0}, "tle": {"line1": "1 30594U 99025ALZ 25346.87743044  .00000627  00000+0  27871-3 0  9995", "line2": "2 30594  99.1512 203.0640 0193395 315.9788  42.6122 14.17340670975816"}}, "geometry": {"type": "Point", "coordinates": [35.720927411984206, 50.25327725592204]}}]}